OBJECT_NAME,OBJECT_ID,EPOCH,MEAN_MOTION,ECCENTRICITY,INCLINATION,RA_OF_ASC_NODE,ARG_OF_PERICENTER,MEAN_ANOMALY,EPHEMERIS_TYPE,CLASSIFICATION_TYPE,NORAD_CAT_ID,ELEMENT_SET_NO,REV_AT_EPOCH,BSTAR,MEAN_MOTION_DOT,MEAN_MOTION_DDOT
ONEWEB-0277,2021-060AE,2026-07-07T00:49:46.345152,13.16594865,.0002083,87.9078,224.8406,99.5011,260.6355,0,U,48995,999,24217,.13282085E-3,.64E-6,0
ONEWEB-0278,2021-060AF,2026-07-08T02:08:10.788000,13.16593579,.0002243,87.9082,224.6227,90.0885,270.0503,0,U,48996,999,24244,.17627E-3,.8E-6,0
ONEWEB-0279,2021-060AG,2026-07-08T02:19:34.674240,13.16593967,.0001938,87.9082,224.6192,100.0313,260.1036,0,U,48997,999,24237,.12415E-3,.6E-6,0
ONEWEB-0280,2021-060AH,2026-07-08T00:51:47.955744,13.16594709,.0002384,87.9082,224.6353,98.3118,261.8283,0,U,48998,999,24230,-.60527E-4,-.1E-6,0
ONEWEB-0281,2021-060AJ,2026-07-07T15:52:35.812704,13.16593576,.0002146,87.9082,224.7054,93.7077,266.4299,0,U,48999,999,24232,-.95875E-4,-.24E-6,0
ONEWEB-0282,2021-060AK,2026-07-08T01:43:05.966112,13.16593985,.0002159,87.9077,224.6315,99.3952,260.7423,0,U,49000,999,24235,.63878E-4,.37E-6,0
ONEWEB-0283,2021-060AL,2026-07-08T01:27:07.547328,13.16593008,.0001988,87.9078,224.6334,98.4539,261.6817,0,U,49001,999,24236,-.93124E-4,-.23E-6,0
ONEWEB-0284,2021-060AM,2026-07-08T01:18:01.399968,13.16593777,.0002409,87.9080,224.6287,94.1521,265.9885,0,U,49002,999,24234,-.10712E-3,-.28E-6,0
ONEWEB-0285,2021-075A,2026-07-07T22:46:56.330112,13.12444686,.0001816,87.8964,346.5335,87.4176,272.7160,0,U,49075,999,23793,.35751E-3,.141E-5,0
ONEWEB-0286,2021-075B,2026-07-07T22:21:06.383232,13.12442429,.0001827,87.8952,346.5518,87.9313,272.2025,0,U,49076,999,23728,-.1071E-2,-.373E-5,0
ONEWEB-0287,2021-075C,2026-07-08T04:49:23.241216,13.17647905,.000177,87.9140,1.6851,75.7000,284.4328,0,U,49077,999,23639,-.54967E-3,-.201E-5,0
ONEWEB-0288,2021-075D,2026-07-07T21:47:08.888928,13.12440525,.0002026,87.8962,346.5346,88.9533,271.1827,0,U,49078,999,23790,.14163E-3,.64E-6,0
ONEWEB-0289,2021-075E,2026-07-07T22:27:46.956096,13.17623387,.0002039,87.9145,1.7554,101.3312,258.8049,0,U,49079,999,23693,-.64042E-2,-.2472E-4,0
ONEWEB-0290,2021-075F,2026-07-07T21:49:01.316064,13.17649971,.000229,87.9146,1.7330,99.8042,260.3348,0,U,49080,999,23634,.88261E-4,.47E-6,0
ONEWEB-0291,2021-075G,2026-07-07T23:16:29.858592,13.17646621,.0002212,87.9140,1.7270,86.9443,273.1942,0,U,49081,999,23634,.65314E-4,.38E-6,0
ONEWEB-0293,2021-075H,2026-07-07T22:03:35.622720,13.17649506,.0002023,87.9139,1.7402,93.2593,266.8770,0,U,49082,999,23636,.81488E-4,.45E-6,0
ONEWEB-0294,2021-075J,2026-07-07T21:56:54.732768,13.12441599,.0002127,87.8962,346.5373,97.8015,262.3355,0,U,49083,999,23729,-.5269E-3,-.177E-5,0
ONEWEB-0295,2021-075K,2026-07-07T22:02:23.222112,13.17649402,.0002098,87.9138,1.7443,84.8767,275.2604,0,U,49084,999,23632,.99646E-4,.52E-6,0
ONEWEB-0296,2021-075L,2026-07-07T23:17:25.787040,13.12442432,.0002115,87.8968,346.5342,88.4814,271.6557,0,U,49085,999,23730,.11349E-2,.421E-5,0
ONEWEB-0297,2021-075M,2026-07-07T22:11:32.517024,13.12442232,.0001895,87.8952,346.5515,91.1811,268.9535,0,U,49086,999,23790,-.10101E-2,-.351E-5,0
ONEWEB-0298,2021-075N,2026-07-07T22:08:40.754688,13.17648570,.000178,87.9139,1.7416,87.9440,272.1896,0,U,49087,999,23635,.99925E-4,.52E-6,0
ONEWEB-0299,2021-075P,2026-07-07T22:10:52.677120,13.17647775,.0001919,87.9151,1.7237,86.0760,274.0591,0,U,49088,999,23633,.14286E-3,.68E-6,0
ONEWEB-0300,2021-075Q,2026-07-07T22:00:33.939072,13.12441479,.0001506,87.8966,346.5343,89.4500,270.6802,0,U,49089,999,23792,-.73532E-3,-.252E-5,0
ONEWEB-0301,2021-075R,2026-07-07T21:37:23.853792,13.12441649,.0001501,87.8961,346.5358,95.2506,264.8794,0,U,49090,999,23728,.63675E-3,.242E-5,0
ONEWEB-0302,2021-075S,2026-07-08T04:37:00.643584,13.12441358,.0002173,87.8962,346.4904,96.2137,263.9239,0,U,49091,999,23730,.10276E-2,.382E-5,0
ONEWEB-0304,2021-075T,2026-07-07T21:34:25.428288,13.17648715,.0001966,87.9138,1.7493,86.8352,273.3005,0,U,49092,999,23630,-.44538E-3,-.16E-5,0
ONEWEB-0305,2021-075U,2026-07-07T23:14:03.357888,13.17648644,.0002079,87.9147,1.7212,80.5967,279.5399,0,U,49093,999,23634,-.44708E-3,-.161E-5,0
ONEWEB-0308,2021-075V,2026-07-07T22:57:54.341280,13.12434179,.0001933,87.8963,346.5291,96.0578,264.0771,0,U,49094,999,23728,.60143E-2,.2177E-4,0
ONEWEB-0309,2021-075W,2026-07-07T23:18:55.497888,13.17649871,.0002354,87.9138,1.7276,96.0919,264.0481,0,U,49095,999,23631,-.145E-5,.12E-6,0
ONEWEB-0310,2021-075X,2026-07-07T21:30:04.945248,13.12442144,.0001857,87.8953,346.5610,94.8568,265.2773,0,U,49096,999,23790,.1095E-2,.407E-5,0
ONEWEB-0311,2021-075Y,2026-07-07T21:39:17.290080,13.17647690,.0001929,87.9140,1.7412,77.6043,282.5304,0,U,49097,999,23635,.33929E-4,.26E-6,0
