ONEWEB-0277             
1 48995U 21060AE  26188.03456418  .00000064  00000+0  13282-3 0  9998
2 48995  87.9078 224.8406 0002083  99.5011 260.6355 13.16594865242171
ONEWEB-0278             
1 48996U 21060AF  26189.08901375  .00000080  00000+0  17627-3 0  9997
2 48996  87.9082 224.6227 0002243  90.0885 270.0503 13.16593579242440
ONEWEB-0279             
1 48997U 21060AG  26189.09692910  .00000060  00000+0  12415-3 0  9999
2 48997  87.9082 224.6192 0001938 100.0313 260.1036 13.16593967242374
ONEWEB-0280             
1 48998U 21060AH  26189.03597171 -.00000010  00000+0 -60527-4 0  9992
2 48998  87.9082 224.6353 0002384  98.3118 261.8283 13.16594709242302
ONEWEB-0281             
1 48999U 21060AJ  26188.66152561 -.00000024  00000+0 -95875-4 0  9990
2 48999  87.9082 224.7054 0002146  93.7077 266.4299 13.16593576242322
ONEWEB-0282             
1 49000U 21060AK  26189.07159683  .00000037  00000+0  63878-4 0  9992
2 49000  87.9077 224.6315 0002159  99.3952 260.7423 13.16593985242350
ONEWEB-0283             
1 49001U 21060AL  26189.06050402 -.00000023  00000+0 -93124-4 0  9995
2 49001  87.9078 224.6334 0001988  98.4539 261.6817 13.16593008242367
ONEWEB-0284             
1 49002U 21060AM  26189.05418287 -.00000028  00000+0 -10712-3 0  9990
2 49002  87.9080 224.6287 0002409  94.1521 265.9885 13.16593777242344
ONEWEB-0285             
1 49075U 21075A   26188.94926308  .00000141  00000+0  35751-3 0  9995
2 49075  87.8964 346.5335 0001816  87.4176 272.7160 13.12444686237935
ONEWEB-0286             
1 49076U 21075B   26188.93132388 -.00000373  00000+0 -10710-2 0  9998
2 49076  87.8952 346.5518 0001827  87.9313 272.2025 13.12442429237282
ONEWEB-0287             
1 49077U 21075C   26189.20096344 -.00000201  00000+0 -54967-3 0  9994
2 49077  87.9140   1.6851 0001770  75.7000 284.4328 13.17647905236390
ONEWEB-0288             
1 49078U 21075D   26188.90774177  .00000064  00000+0  14163-3 0  9997
2 49078  87.8962 346.5346 0002026  88.9533 271.1827 13.12440525237903
ONEWEB-0289             
1 49079U 21075E   26188.93596014 -.00002472  00000+0 -64042-2 0  9990
2 49079  87.9145   1.7554 0002039 101.3312 258.8049 13.17623387236932
ONEWEB-0290             
1 49080U 21075F   26188.90904301  .00000047  00000+0  88261-4 0  9996
2 49080  87.9146   1.7330 0002290  99.8042 260.3348 13.17649971236349
ONEWEB-0291             
1 49081U 21075G   26188.96979003  .00000038  00000+0  65314-4 0  9998
2 49081  87.9140   1.7270 0002212  86.9443 273.1942 13.17646621236344
ONEWEB-0293             
1 49082U 21075H   26188.91916230  .00000045  00000+0  81488-4 0  9995
2 49082  87.9139   1.7402 0002023  93.2593 266.8770 13.17649506236362
ONEWEB-0294             
1 49083U 21075J   26188.91452237 -.00000177  00000+0 -52690-3 0  9998
2 49083  87.8962 346.5373 0002127  97.8015 262.3355 13.12441599237297
ONEWEB-0295             
1 49084U 21075K   26188.91832433  .00000052  00000+0  99646-4 0  9992
2 49084  87.9138   1.7443 0002098  84.8767 275.2604 13.17649402236320
ONEWEB-0296             
1 49085U 21075L   26188.97043735  .00000421  00000+0  11349-2 0  9990
2 49085  87.8968 346.5342 0002115  88.4814 271.6557 13.12442432237307
ONEWEB-0297             
1 49086U 21075M   26188.92468191 -.00000351  00000+0 -10101-2 0  9992
2 49086  87.8952 346.5515 0001895  91.1811 268.9535 13.12442232237904
ONEWEB-0298             
1 49087U 21075N   26188.92269392  .00000052  00000+0  99925-4 0  9994
2 49087  87.9139   1.7416 0001780  87.9440 272.1896 13.17648570236350
ONEWEB-0299             
1 49088U 21075P   26188.92422080  .00000068  00000+0  14286-3 0  9993
2 49088  87.9151   1.7237 0001919  86.0760 274.0591 13.17647775236332
ONEWEB-0300             
1 49089U 21075Q   26188.91705948 -.00000252  00000+0 -73532-3 0  9996
2 49089  87.8966 346.5343 0001506  89.4500 270.6802 13.12441479237926
ONEWEB-0301             
1 49090U 21075R   26188.90097053  .00000242  00000+0  63675-3 0  9992
2 49090  87.8961 346.5358 0001501  95.2506 264.8794 13.12441649237288
ONEWEB-0302             
1 49091U 21075S   26189.19236856  .00000382  00000+0  10276-2 0  9994
2 49091  87.8962 346.4904 0002173  96.2137 263.9239 13.12441358237307
ONEWEB-0304             
1 49092U 21075T   26188.89890542 -.00000160  00000+0 -44538-3 0  9994
2 49092  87.9138   1.7493 0001966  86.8352 273.3005 13.17648715236307
ONEWEB-0305             
1 49093U 21075U   26188.96809442 -.00000161  00000+0 -44708-3 0  9992
2 49093  87.9147   1.7212 0002079  80.5967 279.5399 13.17648644236345
ONEWEB-0308             
1 49094U 21075V   26188.95687895  .00002177  00000+0  60143-2 0  9995
2 49094  87.8963 346.5291 0001933  96.0578 264.0771 13.12434179237284
ONEWEB-0309             
1 49095U 21075W   26188.97147567  .00000012  00000+0 -14500-5 0  9991
2 49095  87.9138   1.7276 0002354  96.0919 264.0481 13.17649871236313
ONEWEB-0310             
1 49096U 21075X   26188.89589057  .00000407  00000+0  10950-2 0  9996
2 49096  87.8953 346.5610 0001857  94.8568 265.2773 13.12442144237905
ONEWEB-0311             
1 49097U 21075Y   26188.90228345  .00000026  00000+0  33929-4 0  9999
2 49097  87.9140   1.7412 0001929  77.6043 282.5304 13.17647690236350
